Name,addr1,addr2,city,State,PostalCode,Website,Phone
Stanley Hotel Tour,333 W Wonder View Ave,,Estes Park,CO,80517,https://www.stanleyhotel.com/tours.html,1 970-577-4111
Estes Park Massage,517 Big Thompson Ave,Lower Stanley Village,Estes Park,CO,80517-9661,http://www.estesparkmassagetherapy.com/,1 970-586-4575
Affinity Massage and Wellness Center,312 E Elkhorn Ave,,Estes Park,CO,80517,http://www.affinitymassageandwellness.com/,1 970-586-3401
Gem Lake,MacGregor Avenue,,Rocky Mountain National Park,CO,,,
Aspen and Evergreen Gallery,356 E. Elkhorn Avenue,Apt 1,Estes Park,CO,80517,https://www.aspenandevergreen.com/,1 970-586-4355
Brownfield's,350 E. Elkhorn Ave.,,Estes Park,CO,80517,https://www.shopbrownfields.com/,1 970-586-3275
WildSide 4x4 Tours,212 E Elkhorn Avenue,,Estes Park,CO,80517,http://www.wildside4x4.com/,1 970-586-8687
Images of Rocky Mountain National Park,203 Park Lane,,Estes Park,CO,80517,https://imagesofrmnp.com/page/EstesParkGallery/,1 970-586-4352
Estes Park Visitor Center,500 Big Thompson Ave,,Estes Park,CO,80517-9649,http://estes-park.com/estes-park-visitor-center/,1 970-577-9900
Kirks Flyshop & Mountain Adventures,230 E Elkhorn Ave,,Estes Park,CO,80517,https://www.facebook.com/Kirks-Fly-Shop-Mountain-Adventures-143734582342142,1 877-669-1859
Rapid Transit Rafting,161 Virginia Dr,,Estes Park,CO,80517-9177,https://rapidtransitrafting.com/,1 800-367-8523
The Taffy Shop,121 W Elkhorn Ave,,Estes Park,CO,80517,http://www.originaltaffyshop.com/,1 970-586-4548
Mountain Blown Glass,101-A West Elkhorn Ave,Mailing Address: 665 Halbach Lane,Estes Park,CO,80517,http://www.mountainblownglass.net/,1 970-577-0880
Green Jeep Tours,157 Moraine Avenue,,Estes Park,CO,80517,https://www.greenjeeptour.com/,1 970-577-0034
Estes Park ATV Rentals,222 E. Elkhorn Ave,,Estes Park,CO,80517,https://www.estesparkatvrentals.com/,1 970-577-7400
Laura's Fine Candy,129 E. Elkhorn Ave.,,Estes Park,CO,80517,https://www.facebook.com/Lauras-Fine-Candies-428397540640142/,1 970-586-4004
Adams Falls Trail,West Portal Road,,Rocky Mountain National Park,CO,,http://www.thespiritoftherockies.net/spirit/Hikes/Adams%20Falls/AdamsFalls.html,1 970-586-1206
Purple Mountain Taffy Company,121 E Elkhorn Ave,,Estes Park,CO,80517,https://www.purplemountaintaffy.com/,1 970-586-3407
Rocky Mountain Chocolate Factory,517 Big Thompson Ave,,Estes Park,CO,80517-9661,https://www.rmcf.com/,1 970-586-6601
Yellow Wood Guiding,404 Driftwood Ave,,Estes Park,CO,80517-9479,http://www.ywguiding.com/,1 303-775-5484
Reel Mountain Theater,543 Big Thompson Ave,,Estes Park,CO,80517-9634,http://reelmountain.com/,1 970-586-4227
The Studio Fine Art and Framing,541 Big Thompson Ave,Suite G,Estes Park,CO,80517-9657,https://www.thestudiofineartandframing.com/,1 970-237-4300
Riverspointe Spa,121 Wiest Drive,,Estes Park,CO,80517,https://www.riverspointespa.com/,
Estes Park Escape Rooms Clueology,541 Big Thompson Ave,Unit C,Estes Park,CO,80517-9662,https://www.estesparkescaperooms.com/,970-776-0356